ISS (ZARYA)             
1 25544U 98067A   26001.79090475  .00014103  00000+0  26338-3 0  9993
2 25544  51.6329  43.1850 0007502 328.5908  31.4631 15.49013666545966
CSS (TIANHE)            
1 48274U 21035A   26001.95000001  .00026593  00000+0  32148-3 0  9995
2 48274  41.4663 253.9368 0010148 200.7574 159.2853 15.60041329267184
ISS (NAUKA)             
1 49044U 21066A   26001.79090475  .00014103  00000+0  26338-3 0  9999
2 49044  51.6329  43.1850 0007502 328.5908  31.4631 15.49013666230441
CSS (WENTIAN)           
1 53239U 22085A   26001.95000001  .00026593  00000+0  32148-3 0  9998
2 53239  41.4663 253.9368 0010148 200.7574 159.2853 15.60041329173840
CSS (MENGTIAN)          
1 54216U 22143A   26001.95000001  .00026593  00000+0  32148-3 0  9999
2 54216  41.4663 253.9368 0010148 200.7574 159.2853 15.60041329158647
SHENZHOU-20 (SZ-20)     
1 63632U 25082A   26001.95000001  .00026593  00000+0  32148-3 0  9996
2 63632  41.4663 253.9368 0010148 200.7574 159.2853 15.60041329255300
PROGRESS-MS 31          
1 64751U 25146A   26001.79090475  .00014103  00000+0  26338-3 0  9994
2 64751  51.6329  43.1850 0007502 328.5908  31.4631 15.49013666  6758
TIANZHOU-9              
1 64786U 25149A   26001.95000001  .00026593  00000+0  32148-3 0  9991
2 64786  41.4663 253.9368 0010148 200.7574 159.2853 15.60041329255301
CREW DRAGON 11          
1 65077U 25166A   26001.79090475  .00014103  00000+0  26338-3 0  9998
2 65077  51.6329  43.1850 0007502 328.5908  31.4631 15.49013666  2149
DRAGON CRS-33           
1 65304U 25186A   26001.79090475  .00014103  00000+0  26338-3 0  9993
2 65304  51.6329  43.1850 0007502 328.5908  31.4631 15.49013666   117
PROGRESS-MS 32          
1 65586U 25204A   26001.79090475  .00014103  00000+0  26338-3 0  9996
2 65586  51.6329  43.1850 0007502 328.5908  31.4631 15.49013666   276
